[{"OBJECT_NAME":"STARLINK-35863","OBJECT_ID":"2025-303H","EPOCH":"2026-03-09T01:07:00.537600","MEAN_MOTION":15.2758932,"ECCENTRICITY":0.00015011,"INCLINATION":42.9985,"RA_OF_ASC_NODE":314.6176,"ARG_OF_PERICENTER":262.5934,"MEAN_ANOMALY":97.4747,"EPHEMERIS_TYPE":0,"CLASSIFICATION_TYPE":"U","NORAD_CAT_ID":67170,"ELEMENT_SET_NO":999,"REV_AT_EPOCH":1263,"BSTAR":0.0018938385,"MEAN_MOTION_DOT":0.00052237,"MEAN_MOTION_DDOT":0},{"OBJECT_NAME":"CZ-6A R\/B","OBJECT_ID":"2023-168B","EPOCH":"2026-03-09T21:13:08.722272","MEAN_MOTION":15.16100791,"ECCENTRICITY":0.00607667,"INCLINATION":97.7542,"RA_OF_ASC_NODE":104.7688,"ARG_OF_PERICENTER":339.2379,"MEAN_ANOMALY":20.6386,"EPHEMERIS_TYPE":0,"CLASSIFICATION_TYPE":"U","NORAD_CAT_ID":58200,"ELEMENT_SET_NO":999,"REV_AT_EPOCH":12979,"BSTAR":0.00029693841,"MEAN_MOTION_DOT":5.919e-5,"MEAN_MOTION_DDOT":0}]
